[{"OBJECT_NAME":"STARLINK-2379","OBJECT_ID":"2021-018M","EPOCH":"2026-03-09T16:04:01.938432","MEAN_MOTION":15.06392315,"ECCENTRICITY":0.00011711,"INCLINATION":53.055,"RA_OF_ASC_NODE":231.7042,"ARG_OF_PERICENTER":85.9686,"MEAN_ANOMALY":274.1437,"EPHEMERIS_TYPE":0,"CLASSIFICATION_TYPE":"U","NORAD_CAT_ID":47798,"ELEMENT_SET_NO":999,"REV_AT_EPOCH":27687,"BSTAR":-0.00021739496,"MEAN_MOTION_DOT":-3.517e-5,"MEAN_MOTION_DDOT":0},{"OBJECT_NAME":"ION SCV-014","OBJECT_ID":"2025-009X","EPOCH":"2026-03-09T17:13:35.291712","MEAN_MOTION":15.0488465,"ECCENTRICITY":0.00064503,"INCLINATION":97.4923,"RA_OF_ASC_NODE":144.8636,"ARG_OF_PERICENTER":112.6479,"MEAN_ANOMALY":247.543,"EPHEMERIS_TYPE":0,"CLASSIFICATION_TYPE":"U","NORAD_CAT_ID":62630,"ELEMENT_SET_NO":999,"REV_AT_EPOCH":6302,"BSTAR":0.0001322874,"MEAN_MOTION_DOT":1.812e-5,"MEAN_MOTION_DDOT":0}]
