STARLINK-2379           
1 47798U 21018M   26068.66946688 -.00003517  00000+0 -21739-3 0  9994
2 47798  53.0550 231.7042 0001171  85.9686 274.1437 15.06392315276879
ION SCV-014             
1 62630U 25009X   26068.71776957  .00001812  00000+0  13229-3 0  9995
2 62630  97.4923 144.8636 0006450 112.6479 247.5430 15.04884649 63025
